[{"OBJECT_NAME":"STARLINK-2590","OBJECT_ID":"2021-038AW","EPOCH":"2026-03-09T23:13:09.400224","MEAN_MOTION":15.30175723,"ECCENTRICITY":0.00012287,"INCLINATION":53.1606,"RA_OF_ASC_NODE":331.3508,"ARG_OF_PERICENTER":67.7668,"MEAN_ANOMALY":292.3463,"EPHEMERIS_TYPE":0,"CLASSIFICATION_TYPE":"U","NORAD_CAT_ID":48397,"ELEMENT_SET_NO":999,"REV_AT_EPOCH":26870,"BSTAR":-6.4755149e-5,"MEAN_MOTION_DOT":-2.275e-5,"MEAN_MOTION_DDOT":0},{"OBJECT_NAME":"KUIPER-00175","OBJECT_ID":"2025-301C","EPOCH":"2026-03-09T23:30:37.840032","MEAN_MOTION":15.30996371,"ECCENTRICITY":0.00022792,"INCLINATION":51.8781,"RA_OF_ASC_NODE":63.6978,"ARG_OF_PERICENTER":50.5695,"MEAN_ANOMALY":309.549,"EPHEMERIS_TYPE":0,"CLASSIFICATION_TYPE":"U","NORAD_CAT_ID":67135,"ELEMENT_SET_NO":999,"REV_AT_EPOCH":1385,"BSTAR":0.00066732304,"MEAN_MOTION_DOT":0.00019968,"MEAN_MOTION_DDOT":0}]
